{"type":"FeatureCollection","features":[{"type":"Feature","id":"em_jigu_border_pcc.fid--42a6b9ce_1a08e848543_-75f5","geometry":{"type":"MultiPolygon","coordinates":[[[[128.96327677,35.21259476],[128.96955815,35.21197192],[128.96893206,35.20738912],[128.9745803,35.20744444],[128.97446361,35.21117381],[128.97464447,35.2114209],[128.98065986,35.21080544],[128.97266643,35.20498733],[128.9715299,35.20367243],[128.97102778,35.20235705],[128.9705184,35.20242157],[128.97054501,35.20277106],[128.96950169,35.202844],[128.96826076,35.20132989],[128.96743725,35.20126507],[128.9674162,35.20120202],[128.96667602,35.20119482],[128.96671206,35.198803],[128.96571121,35.19879273],[128.96572141,35.19799261],[128.96546434,35.19798686],[128.96545916,35.19780048],[128.96468495,35.19757093],[128.96346105,35.19756719],[128.96262677,35.19707731],[128.96283353,35.19683728],[128.96197207,35.19634126],[128.96193842,35.19623418],[128.96218628,35.19609667],[128.96259092,35.19561924],[128.95994978,35.19408321],[128.96058439,35.1933051],[128.96043739,35.19321942],[128.96064176,35.19297776],[128.96023996,35.19274333],[128.96065384,35.19225851],[128.96040808,35.19211715],[128.96110202,35.19131552],[128.96077267,35.19067017],[128.95989089,35.19074973],[128.95939926,35.19071155],[128.95930342,35.19058227],[128.95881233,35.19054863],[128.9587097,35.19065559],[128.95817032,35.19065854],[128.95774119,35.19076392],[128.95705824,35.19123745],[128.95681064,35.19157137],[128.95593922,35.19341899],[128.95522709,35.19455224],[128.95231558,35.19814433],[128.95210666,35.19816953],[128.95183082,35.19848927],[128.9613608,35.20265319],[128.96239663,35.20304977],[128.96338861,35.20329815],[128.96323796,35.21197765],[128.96312481,35.21234685],[128.96284038,35.21263695],[128.96327677,35.21259476]]],[[[128.96389062,35.21509153],[128.96517099,35.2150891],[128.96690178,35.21494666],[128.9716508,35.21475378],[128.97904704,35.21430532],[128.97977637,35.21408381],[128.98041233,35.21373089],[128.97988787,35.2126075],[128.97991559,35.21148635],[128.95557428,35.21399276],[128.95491343,35.21394736],[128.95445281,35.21380767],[128.95366284,35.21388871],[128.95660844,35.21476141],[128.95771393,35.21498255],[128.96182256,35.21510849],[128.96389062,35.21509153]]]]},"geometry_name":"geom","properties":{"bzdt_cd":"105524","bzdt_nm":"부산대저","color_cd":"#6F628E","epz_pgrs_step_cd":"03","pcc_flag":"LH","projectId":"busan-daejeo","sourceUrl":"https://wherehome.lh.or.kr/lhmap.do","layer":"em_jigu_border_pcc","retrievedAt":"2026-09-11","accuracy":"LH 공개 지도 제공 경계. 법적 편입 확정은 최신 고시·토지조서로 확인."}}],"totalFeatures":"unknown","numberReturned":1,"timeStamp":"2026-09-11T03:31:08.993Z","crs":{"type":"name","properties":{"name":"urn:ogc:def:crs:EPSG::4326"}}}